1 45416U 20019BJ  23285.82314823  .00006915  00000-0  48264-3 0  9991
2 45416  53.0527 122.0050 0000570 100.6895 259.4158 15.06400524197407
1 45416U 20019BJ  23286.81834462  .00018379  00000-0  12486-2 0  9990
2 45416  53.0543 117.5377 0000731  98.6023 261.5049 15.06427357197556
1 45416U 20019BJ  23286.81834462  .00018379  00000-0  12486-2 0  9990
2 45416  53.0543 117.5377 0000731  98.6023 261.5049 15.06427357197556
1 45416U 20019BJ  23287.54816183  .00006175  00000-0  43298-3 0  9998
2 45416  53.0535 114.2609 0000744  73.9474 286.1597 15.06409193197660
1 45416U 20019BJ  23287.74720329 -.00001341  00000-0 -71175-4 0  9994
2 45416  53.0534 113.3672 0000881  89.2003 270.9087 15.06393189197694
1 45416U 20019BJ  23287.74720329 -.00001341  00000-0 -71175-4 0  9994
2 45416  53.0534 113.3672 0000881  89.2003 270.9087 15.06393189197694
1 45416U 20019BJ  23288.47702606  .00013524  00000-0  92514-3 0  9996
2 45416  53.0535 110.0903 0000913  79.4024 280.7068 15.06396824197806
1 45416U 20019BJ  23288.80875852  .00014080  00000-0  96207-3 0  9998
2 45416  53.0534 108.6011 0000889  79.3795 280.7294 15.06407425197850
1 45416U 20019BJ  23288.87510483  .00014154  00000-0  96697-3 0  9996
2 45416  53.0532 108.3033 0000864  79.5640 280.5447 15.06409310197867
1 45416U 20019BJ  23289.20683961  .00008783  00000-0  60765-3 0  9994
2 45416  53.0532 106.8142 0000898  85.9319 274.1772 15.06406158197915
1 45416U 20019BJ  23289.20683961  .00008783  00000-0  60765-3 0  9994
2 45416  53.0532 106.8142 0000898  85.9319 274.1772 15.06406158197915
1 45416U 20019BJ  23289.67126912  .00003478  00000-0  25224-3 0  9990
2 45416  53.0530 104.7289 0000988  81.9049 278.2052 15.06399042197984
1 45416U 20019BJ  23289.87030956  .00003894  00000-0  28013-3 0  9995
2 45416  53.0528 103.8356 0000852  80.8131 279.2954 15.06400859198012
1 45416U 20019BJ  23290.46742562  .00009272  00000-0  64023-3 0  9992
2 45416  53.0532 101.1546 0000985  86.1368 273.9734 15.06415783198106
1 45416U 20019BJ  23290.73280832  .00012107  00000-0  82975-3 0  9996
2 45416  53.0530  99.9630 0000951  84.6894 275.4203 15.06424979198141
1 45416U 20019BJ  23290.73280832  .00012107  00000-0  82975-3 0  9996
2 45416  53.0530  99.9630 0000951  84.6894 275.4203 15.06424979198141
1 45416U 20019BJ  23291.46262362 -.00003898  00000-0 -24296-3 0  9996
2 45416  53.0537  96.6855 0000985 103.3917 256.7182 15.06398186198253
1 45416U 20019BJ  23292.19243666  .00006109  00000-0  42852-3 0  9997
2 45416  53.0529  93.4098 0001244  98.6843 261.4287 15.06409128198361
1 45416U 20019BJ  23292.85589226  .00018238  00000-0  12389-2 0  9992
2 45416  53.0534  90.4320 0000822  96.1861 263.9222 15.06437058198466
1 45416U 20019BJ  23293.85111883  .00011215  00000-0  77095-3 0  9997
2 45416  53.0531  85.9623 0002919  93.9253 266.2070 15.06380873198613
1 45416U 20019BJ  23294.05015448  .00006837  00000-0  47762-3 0  9992
2 45416  53.0539  85.0718 0001230  86.2441 273.8688 15.06385834198640
1 45416U 20019BJ  23294.51458235  .00012076  00000-0  82820-3 0  9994
2 45416  53.0541  82.9863 0001129  96.8353 263.2765 15.06399331198710
1 45416U 20019BJ  23294.77996785  .00014715  00000-0  10044-2 0  9999
2 45416  53.0543  81.7952 0001195  81.7442 278.3682 15.06411440198758
1 45416U 20019BJ  23294.77996785  .00014715  00000-0  10044-2 0  9999
2 45416  53.0543  81.7952 0001195  81.7442 278.3682 15.06411440198758
1 45416U 20019BJ  23295.11170646 -.00020413  00000-0 -13550-2 0  9997
2 45416  53.0531  80.3047 0001811  79.2594 280.8599 15.06411190198803
1 45416U 20019BJ  23295.57614238 -.00007726  00000-0 -50066-3 0  9993
2 45416  53.0530  78.2222 0001266  94.4816 265.6318 15.06377546198876
1 45416U 20019BJ  23295.70883718 -.00003738  00000-0 -23232-3 0  9993
2 45416  53.0540  77.6256 0001205  91.3501 268.7626 15.06383468198895
1 45416U 20019BJ  23295.70883718 -.00003738  00000-0 -23232-3 0  9993
2 45416  53.0540  77.6256 0001205  91.3501 268.7626 15.06383468198895
1 45416U 20019BJ  23296.10691951  .00001993  00000-0  15266-3 0  9991
2 45416  53.0536  75.8394 0001239  96.4227 263.6903 15.06391786198952
1 45416U 20019BJ  23296.10691951  .00001993  00000-0  15266-3 0  9991
2 45416  53.0536  75.8394 0001239  96.4227 263.6903 15.06391786198952
1 45416U 20019BJ  23297.63290357  .00002517  00000-0  18787-3 0  9999
2 45416  53.0541  68.9876 0001555  85.6163 274.5004 15.06393118199186
1 45416U 20019BJ  23298.49541823  .00004105  00000-0  29437-3 0  9990
2 45416  53.0552  65.1163 0001179  84.6103 275.5020 15.06394776199316
1 45416U 20019BJ  23298.49541823  .00004105  00000-0  29437-3 0  9990
2 45416  53.0552  65.1163 0001179  84.6103 275.5020 15.06394776199316
1 45416U 20019BJ  23299.55696509  .00006931  00000-0  48364-3 0  9999
2 45416  53.0554  60.3510 0001159  78.0230 282.0889 15.06409153199476
1 45416U 20019BJ  23299.62331087  .00007634  00000-0  53068-3 0  9992
2 45416  53.0553  60.0531 0001162  77.9027 282.2092 15.06411939199485
1 45416U 20019BJ  23299.82234782  .00009179  00000-0  63398-3 0  9991
2 45416  53.0554  59.1594 0001153  77.9720 282.1399 15.06419300199517
1 45416U 20019BJ  23300.48579661  .00017564  00000-0  11934-2 0  9999
2 45416  53.0559  56.1807 0001159  79.2543 280.8577 15.06451896199610
1 45416U 20019BJ  23300.61848388  .00020915  00000-0  14164-2 0  9991
2 45416  53.0559  55.5857 0001171  73.9743 286.1375 15.06462932199635
1 45416U 20019BJ  23300.68482753  .00021486  00000-0  14543-2 0  9993
2 45416  53.0569  55.2890 0001251  81.2050 278.9081 15.06466961199642
1 45416U 20019BJ  23301.01656802 -.00009203  00000-0 -59948-3 0  9993
2 45416  53.0568  53.7961 0002249  82.3958 277.7287 15.06413878199699
1 45416U 20019BJ  23301.54735453  .00014776  00000-0  10097-2 0  9991
2 45416  53.0566  51.4178 0001250 110.2716 249.8408 15.06365194199777
1 45416U 20019BJ  23301.61370330  .00018990  00000-0  12916-2 0  9992
2 45416  53.0566  51.1197 0001274 109.8607 250.2519 15.06363972199786
1 45416U 20019BJ  23302.54255846  .00036759  00000-0  24717-2 0  9994
2 45416  53.0551  46.9480 0001047 101.7424 258.3682 15.06431961199923
1 45416U 20019BJ  23302.60890375  .00036335  00000-0  24433-2 0  9998
2 45416  53.0551  46.6502 0001049 100.9787 259.1320 15.06436306199937
1 45416U 20019BJ  23303.47142625  .00013510  00000-0  92458-3 0  9995
2 45416  53.0565  42.7739 0001236 130.4488 229.6608 15.06381657200061
1 45416U 20019BJ  23303.53777552  .00004448  00000-0  31745-3 0  9997
2 45416  53.0570  42.4781 0001345  91.6705 268.4438 15.06385524200072
1 45416U 20019BJ  23304.00221068  .00008866  00000-0  61364-3 0  9994
2 45416  53.0566  40.3934 0001387  86.2612 273.8536 15.06383660200143
1 45416U 20019BJ  23304.53298149  .00018565  00000-0  12615-2 0  9997
2 45416  53.0559  38.0127 0001161  67.1273 292.9838 15.06412807200226
1 45416U 20019BJ  23304.53298149  .00018565  00000-0  12615-2 0  9997
2 45416  53.0559  38.0127 0001161  67.1273 292.9838 15.06412807200226
1 45416U 20019BJ  23304.66567351  .00020212  00000-0  13712-2 0  9996
2 45416  53.0561  37.4176 0001176  65.1732 294.9379 15.06420071200246
1 45416U 20019BJ  23304.99740724  .00007696  00000-0  53483-3 0  9990
2 45416  53.0584  35.9249 0001444  80.7685 279.3467 15.06411736200291
1 45416U 20019BJ  23305.52817721  .00009032  00000-0  62417-3 0  9995
2 45416  53.0569  33.5449 0001313  75.8387 284.2748 15.06419465200372
1 45416U 20019BJ  23306.52337182  .00003959  00000-0  28438-3 0  9991
2 45416  53.0567  29.0800 0001367  76.6039 283.5102 15.06417155200520
1 45416U 20019BJ  23306.52337182  .00003959  00000-0  28438-3 0  9991
2 45416  53.0567  29.0800 0001367  76.6039 283.5102 15.06417155200520
1 45416U 20019BJ  23306.92145930 -.00000916  00000-0 -42607-4 0  9990
2 45416  53.0569  27.2875 0001518  73.1908 286.9248 15.06400611200582
1 45416U 20019BJ  23307.18684917 -.00003683  00000-0 -22853-3 0  9996
2 45416  53.0577  26.1071 0001598  82.0531 278.0639 15.06390832200620
1 45416U 20019BJ  23307.45224518 -.00005827  00000-0 -37284-3 0  9999
2 45416  53.0567  24.9100 0001491  89.9019 270.2140 15.06378696200666
1 45416U 20019BJ  23307.51859186 -.00004748  00000-0 -30022-3 0  9995
2 45416  53.0568  24.6127 0001452  89.9730 270.1426 15.06381113200675
1 45416U 20019BJ  23308.18206235  .00001472  00000-0  11770-3 0  9998
2 45416  53.0577  21.6340 0001525  93.5546 266.5617 15.06393437200770
1 45416U 20019BJ  23308.51379937  .00019732  00000-0  13395-2 0  9997
2 45416  53.0560  20.1444 0001416  93.7604 266.3547 15.06410505200829
1 45416U 20019BJ  23308.51379937  .00019732  00000-0  13395-2 0  9997
2 45416  53.0560  20.1444 0001416  93.7604 266.3547 15.06410505200829
1 45416U 20019BJ  23308.91187987  .00017004  00000-0  11573-2 0  9999
2 45416  53.0557  18.3567 0001502  98.0861 262.0299 15.06412987200888
1 45416U 20019BJ  23309.17726786  .00019998  00000-0  13571-2 0  9998
2 45416  53.0556  17.1665 0001849  97.2422 262.8777 15.06414960200928
1 45416U 20019BJ  23309.50899947  .00011265  00000-0  77366-3 0  9997
2 45416  53.0559  15.6770 0001555 101.2592 258.8572 15.06414035200975
1 45416U 20019BJ  23309.50899947  .00011265  00000-0  77366-3 0  9997
2 45416  53.0559  15.6770 0001555 101.2592 258.8572 15.06414035200975
1 45416U 20019BJ  23309.97341272  .00034468  00000-0  23179-2 0  9993
2 45416  53.0555  13.5920 0001484 111.4255 248.6893 15.06458435201049
1 45416U 20019BJ  23310.43783191  .00013511  00000-0  92306-3 0  9991
2 45416  53.0546  11.5117 0002032  65.4962 294.6239 15.06446011201118
1 45416U 20019BJ  23310.43783191  .00013511  00000-0  92306-3 0  9991
2 45416  53.0546  11.5117 0002032  65.4962 294.6239 15.06446011201118
1 45416U 20019BJ  23310.90227185 -.00015882  00000-0 -10503-2 0  9992
2 45416  53.0560   9.4217 0001579  95.6687 264.4482 15.06378663201184
1 45416U 20019BJ  23310.90227185 -.00015882  00000-0 -10503-2 0  9992
2 45416  53.0560   9.4217 0001579  95.6687 264.4482 15.06378663201184
1 45416U 20019BJ  23311.43306709  .00041022  00000-0  27585-2 0  9992
2 45416  53.0555   7.0394 0001759  90.6198 269.4993 15.06377791201262
